[{"OBJECT_NAME":"STARLINK-34751","OBJECT_ID":"2025-189R","EPOCH":"2026-03-09T15:55:03.467712","MEAN_MOTION":15.30199121,"ECCENTRICITY":0.0001088,"INCLINATION":53.1582,"RA_OF_ASC_NODE":206.7976,"ARG_OF_PERICENTER":66.0869,"MEAN_ANOMALY":294.0246,"EPHEMERIS_TYPE":0,"CLASSIFICATION_TYPE":"U","NORAD_CAT_ID":65338,"ELEMENT_SET_NO":999,"REV_AT_EPOCH":3110,"BSTAR":0.00081044971,"MEAN_MOTION_DOT":0.0002372,"MEAN_MOTION_DDOT":0},{"OBJECT_NAME":"FREGAT DEB","OBJECT_ID":"2011-037DH","EPOCH":"2026-03-09T04:33:23.081472","MEAN_MOTION":11.46566972,"ECCENTRICITY":0.18116391,"INCLINATION":51.4603,"RA_OF_ASC_NODE":35.1775,"ARG_OF_PERICENTER":145.9194,"MEAN_ANOMALY":227.2544,"EPHEMERIS_TYPE":0,"CLASSIFICATION_TYPE":"U","NORAD_CAT_ID":45888,"ELEMENT_SET_NO":999,"REV_AT_EPOCH":23408,"BSTAR":0.0006649834,"MEAN_MOTION_DOT":3.203e-5,"MEAN_MOTION_DDOT":0}]
